[{"OBJECT_NAME":"STARLINK-3770","OBJECT_ID":"2022-051X","EPOCH":"2026-03-09T10:37:40.550016","MEAN_MOTION":15.08836721,"ECCENTRICITY":0.00014649,"INCLINATION":53.2176,"RA_OF_ASC_NODE":135.2298,"ARG_OF_PERICENTER":91.0756,"MEAN_ANOMALY":269.0404,"EPHEMERIS_TYPE":0,"CLASSIFICATION_TYPE":"U","NORAD_CAT_ID":52554,"ELEMENT_SET_NO":999,"REV_AT_EPOCH":21133,"BSTAR":1.6421357e-5,"MEAN_MOTION_DOT":-2.7e-7,"MEAN_MOTION_DDOT":0},{"OBJECT_NAME":"COSMOS 2251 DEB","OBJECT_ID":"1993-036AUM","EPOCH":"2026-03-08T12:34:22.155456","MEAN_MOTION":14.96324912,"ECCENTRICITY":0.00809203,"INCLINATION":73.9894,"RA_OF_ASC_NODE":123.8265,"ARG_OF_PERICENTER":247.0296,"MEAN_ANOMALY":179.8153,"EPHEMERIS_TYPE":0,"CLASSIFICATION_TYPE":"U","NORAD_CAT_ID":35898,"ELEMENT_SET_NO":999,"REV_AT_EPOCH":68092,"BSTAR":0.00097608609,"MEAN_MOTION_DOT":0.00011776,"MEAN_MOTION_DDOT":0}]
